CUTE-1 (CO-55)          
1 27844U 03031E   25312.02370634  .00000516  00000+0  24285-3 0  9995
2 27844  98.6777 318.3731 0010689 106.2118 254.0238 14.24133440160197
CUBESAT XI-IV (CO-57)   
1 27848U 03031J   25311.97343008  .00000427  00000+0  20718-3 0  9995
2 27848  98.6805 318.2128 0010406 122.3307 237.8880 14.23448421159904
CUBESAT XI-V            
1 28895U 05043F   25311.90524030  .00003240  00000+0  52753-3 0  9992
2 28895  98.2708  98.4040 0014318 183.4349 176.6762 14.71677765 69193
CUTE-1.7+APD II (CO-65) 
1 32785U 08021C   25312.17167892  .00008781  00000+0  59936-3 0  9998
2 32785  97.8051 284.7938 0011549  64.3512 295.8906 15.06389552951883
CANX-2                  
1 32790U 08021H   25311.89400190  .00006862  00000+0  51036-3 0  9994
2 32790  97.8383 283.0841 0012700  72.8973 287.3641 15.03244990951534
SEEDS II (CO-66)        
1 32791U 08021J   25311.91718076  .00024076  00000+0  10077-2 0  9999
2 32791  97.7439 295.9115 0004990  38.1771 321.9818 15.23551299953498
SWISSCUBE               
1 35932U 09051B   25311.65829484  .00002402  00000+0  49104-3 0  9993
2 35932  98.4134 210.6129 0006645 171.4747 188.6567 14.61793927856780
BEESAT-1                
1 35933U 09051C   25311.97002630  .00001789  00000+0  37351-3 0  9993
2 35933  98.4067 211.0083 0004865 181.2440 178.8749 14.61139737856877
ITUPSAT1                
1 35935U 09051E   25310.67345031  .00001603  00000+0  34476-3 0  9996
2 35935  98.4161 209.1036 0006759 200.8063 159.2862 14.59902350856261
TISAT 1                 
1 36799U 10035E   25312.07681521  .00024949  00000+0  11056-2 0  9998
2 36799  98.0564 235.9750 0001923   3.3153 356.8093 15.21616448833960
AEROCUBE 4.5A           
1 38767U 12048K   25311.76387667  .00070905  00000+0  13767-2 0  9994
2 38767  64.6441  78.3098 0078867 239.8232 119.5077 15.43834355338069
STRAND-1                
1 39090U 13009E   25312.06323389  .00000564  00000+0  20470-3 0  9991
2 39090  98.3836 132.8431 0008879 164.9913 195.1539 14.36958177665301
BRITE-AUSTRIA           
1 39091U 13009F   25312.05463385  .00000368  00000+0  14004-3 0  9990
2 39091  98.3900 132.0685 0010283 174.1471 185.9837 14.36404248665304
NEE-01 PEGASO           
1 39151U 13018B   25311.82107016  .00005596  00000+0  55732-3 0  9998
2 39151  98.0940  84.3455 0013303 169.0223 191.1288 14.91970239677671
POPACS 1                
1 39268U 13055D   25311.90006168  .00160704  64105-5  75596-3 0  9998
2 39268  80.9607 256.9213 0152403 170.8617 189.5474 15.67735650638092
POPACS 2                
1 39269U 13055E   25311.66881294  .00037180  00000+0  68897-3 0  9998
2 39269  80.9979  36.1383 0454412 181.0843 178.9437 14.81585416630294
POPACS 3                
1 39270U 13055F   25311.88434441  .00012686  00000+0  31236-3 0  9993
2 39270  81.0005 108.2657 0571888  21.7999 340.6498 14.51055778606403
ZACUBE-1 (TSHEPISOSAT)  
1 39417U 13066B   25312.14302418  .00008422  00000+0  69624-3 0  9991
2 39417  97.7989 268.6601 0041251 265.2374  94.4137 14.98521526647598
WNISAT-1                
1 39423U 13066H   25311.92714772  .00002566  00000+0  47874-3 0  9999
2 39423  97.6917 112.2673 0163902 208.4515 150.7665 14.57481482634490
TRITON-1                
1 39427U 13066M   25312.16826657  .00005011  00000+0  62133-3 0  9999
2 39427  97.8295 222.1158 0091026 233.6233 125.6556 14.80188725641373
GOMX-1                  
1 39430U 13066Q   25312.15100014  .00003068  00000+0  47247-3 0  9993
2 39430  97.6622 161.4399 0132270  67.1791 294.3323 14.68350211637465
CUBEBUG-2 (LO-74)       
1 39440U 13066AA  25311.79090628  .00009152  00000+0  88917-3 0  9991
2 39440  97.8659 255.5321 0061819  41.9436 318.6493 14.91379597643968
NEE-02 KRYSAOR          
1 39441U 13066AB  25312.08560017  .00004309  00000+0  48713-3 0  9998
2 39441  97.8684 248.3460 0069498  74.6201 286.2678 14.85248245643362
FUNCUBE-1 (AO-73)       
1 39444U 13066AE  25312.16092051  .00012714  00000+0  88273-3 0  9992
2 39444  97.8029 275.0461 0037278 232.4482 127.3356 15.05132307646367
UWE-3                   
1 39446U 13066AG  25312.08059713  .00009484  00000+0  86020-3 0  9991
2 39446  97.8429 262.4309 0050893 338.4609  21.4469 14.94540836644522
BRITE-CA1 (TORONTO)     
1 40020U 14033L   25312.17920507  .00001959  00000+0  30534-3 0  9992
2 40020  97.9470  80.6824 0078258 264.3829  94.8450 14.72042414609695
DUCHIFAT-1              
1 40021U 14033M   25312.05340954  .00044150  00000+0  12075-2 0  9991
2 40021  98.0842 340.3376 0008213 135.5478 224.6425 15.37203067621517
NANOSATC-BR1            
1 40024U 14033Q   25311.98849564  .00022173  00000+0  94332-3 0  9994
2 40024  98.0919 320.9305 0002590 209.9230 150.1857 15.23030489620214
QB50P1                  
1 40025U 14033R   25311.92140563  .00014331  00000+0  80332-3 0  9994
2 40025  98.0961 303.3349 0007467 262.0715  97.9667 15.13491194619501
QB50P2                  
1 40032U 14033Y   25312.18729103  .00011555  00000+0  69600-3 0  9994
2 40032  98.0614 291.1789 0007019 192.9177 167.1873 15.10953919619247
PERSEUS-M2              
1 40037U 14033AD  25312.13335157  .00003973  00000+0  37352-3 0  9990
2 40037  97.9709 253.7002 0010928 319.9127  40.1285 14.94462507617756
PERSEUS-M1              
1 40039U 14033AF  25311.78422861  .00004597  00000+0  43086-3 0  9995
2 40039  97.9415 247.7727 0010667 319.7148  40.3281 14.94499990617552
POLYITAN-1              
1 40042U 14033AJ  25311.96694713  .00025716  00000+0  10657-2 0  9999
2 40042  98.1093 313.6921 0007892 183.3641 176.7542 15.23862246619792
TIGRISAT                
1 40043U 14033AK  25311.97699617  .00004380  00000+0  52178-3 0  9998
2 40043  97.7549 102.6537 0051693  80.5166 280.1885 14.83867107612802
AEROCUBE 6A             
1 40045U 14033AM  25311.97643198  .00009303  00000+0  85073-3 0  9993
2 40045  97.7043 117.0689 0041608  36.7381 323.6678 14.94548766613531
AEROCUBE 6B             
1 40046U 14033AN  25311.98130494  .00009978  00000+0  88366-3 0  9991
2 40046  97.7019 116.4454 0040041  28.8938 331.4488 14.95832360613643
CANX-4                  
1 40055U 14034C   25312.15499172  .00001904  00000+0  25512-3 0  9998
2 40055  98.3396 174.0022 0013163   7.1161 353.0234 14.80637471611818
CANX-5                  
1 40056U 14034D   25312.08831995  .00001901  00000+0  25453-3 0  9995
2 40056  98.3398 173.9635 0013194   7.6045 352.5363 14.80652964602618
UKUBE-1                 
1 40074U 14037F   25312.17725705  .00014933  00000+0  95634-3 0  9996
2 40074  98.4117 288.1952 0002328 117.9772 242.1689 15.08671434615172
BRITE-PL2 (HEWELIUSZ)   
1 40119U 14049B   25311.82857346  .00004356  00000+0  41951-3 0  9998
2 40119  97.8989  57.5271 0015472 121.8397 238.4331 14.93394512608395
AEROCUBE 5C             
1 40965U 15058B   25312.18892583  .00004483  00000+0  39974-3 0  9993
2 40965  64.7681 229.3154 0142448 148.9676 211.9951 14.89779418332710
AEROCUBE 7              
1 40966U 15058C   25312.17349586  .00006214  00000+0  50899-3 0  9996
2 40966  64.7630 215.9842 0133156 148.7911 212.1198 14.93440851332926
FOX-1A (AO-85)          
1 40967U 15058D   25312.09585475  .00004361  00000+0  39787-3 0  9991
2 40967  64.7760 245.2577 0139064 143.0834 217.9950 14.89290442 80628
SINOD-D 1               
1 40968U 15058E   25312.17355958  .00006392  00000+0  52857-3 0  9991
2 40968  64.7761 229.9047 0127868 141.4986 219.5336 14.93551947 83624
SNAP-3 ALICE            
1 40970U 15058G   25311.93596727  .00049740  00000+0  16250-2 0  9998
2 40970  64.7601 129.4305 0053212 141.1331 219.3647 15.30068053 82741
LMRST-SAT               
1 40971U 15058H   25312.13151387  .00004031  00000+0  36979-3 0  9996
2 40971  64.7762 241.0879 0141618 144.7957 216.2613 14.88955695 80621
SNAP-3 EDDIE            
1 40972U 15058J   25311.86888772  .00051645  00000+0  16411-2 0  9992
2 40972  64.7525 121.6798 0056943 143.8709 216.6292 15.30734016 84859
PROPCUBE 3              
1 40973U 15058K   25312.14919135  .00005399  00000+0  45662-3 0  9999
2 40973  64.7695 222.1697 0135265 146.8803 214.0872 14.92213780 81799
BISONSAT                
1 40974U 15058L   25311.98214649  .00016743  00000+0  93897-3 0  9997
2 40974  64.7597 165.6355 0093643 144.1690 216.5763 15.09793698 82147
SNAP-3 JIMI             
1 40975U 15058M   25312.03481873  .00008647  00000+0  62633-3 0  9998
2 40975  64.7650 197.9162 0118316 145.6273 215.2572 14.99021517 81033
PROPCUBE 1 (FLORA)      
1 40976U 15058N   25312.15641845  .00003867  00000+0  36839-3 0  9997
2 40976  64.7752 259.5153 0140954 146.8304 214.1744 14.87659965 83361
SINOD-D 3               
1 40977U 15058P   25312.13336191  .00005782  00000+0  49981-3 0  9991
2 40977  64.7730 245.0413 0129842 145.8205 215.1353 14.91820028 81752
HORYU-4                 
1 41340U 16012D   25311.94302958  .00052312  00000+0  10083-2 0  9990
2 41340  30.9930 188.1643 0004589 241.9982 118.0202 15.46567840536150
RAVAN                   
1 41849U 16067B   25312.10642466  .00035334  00000+0  98677-3 0  9995
2 41849  98.0201 174.0594 0009410  67.2926 292.9310 15.36593807493553
CELTEE 1                
1 41850U 16067C   25311.30987608  .00009628  00000+0  49685-3 0  9990
2 41850  98.0906 157.8031 0000594  51.9312 308.1973 15.16566387492213
OPTICUBE 04             
1 41851U 16067D   25312.07475222  .00004554  00000+0  29767-3 0  9992
2 41851  98.0856 147.7238 0016968 140.8513 219.3945 15.08238224491823
AEROCUBE 8D             
1 41852U 16067E   25312.13338564  .00012246  00000+0  56859-3 0  9996
2 41852  98.0930 160.7174 0003865 157.8851 202.2550 15.20178919492435
AEROCUBE 8C             
1 41853U 16067F   25312.12413177  .00012576  00000+0  58048-3 0  9998
2 41853  98.0789 158.2454 0007050 100.2305 259.9723 15.20358527492422
PROMETHEUS 2-1          
1 41854U 16067G   25312.15784838  .00341563  00000+0  18077-2 0  9995
2 41854  98.0421 185.5148 0006426  76.1776 284.0204 15.79629206494017
